STARLINK-36455          
1 67418U 26005Q   26026.58334491 -.00002667  00000+0 -14279-4 0  9991
2 67418  43.0001 121.1742 0001216 251.0055 151.9624 15.75018260  3413
STARLINK-36424          
1 67419U 26005R   26026.58334491 -.00116446  00000+0 -76389-3 0  9992
2 67419  43.0001 121.1695 0001018 295.5088 109.3779 15.75086378  3413
STARLINK-35564          
1 67420U 26005S   26026.58334491 -.00239642  00000+0 -15947-2 0  9990
2 67420  43.0002 121.1649 0001477 271.9103 134.9160 15.75136885  3305
STARLINK-36431          
1 67421U 26005T   26026.58334491 -.00189158  00000+0 -12522-2 0  9993
2 67421  43.0004 121.1599 0001575 278.3099 130.4417 15.75108571  3202
STARLINK-36418          
1 67422U 26005U   26026.58334491 -.00211720  00000+0 -14049-2 0  9991
2 67422  43.0001 121.1552 0001171 274.7710 135.8926 15.75122093  3367
STARLINK-36465          
1 67423U 26005V   26026.58334491 -.00204115  00000+0 -13533-2 0  9999
2 67423  43.0005 121.1505 0001388 285.6177 126.9632 15.75118577  3152
STARLINK-36362          
1 67424U 26005W   26026.58334491 -.00171038  00000+0 -11302-2 0  9999
2 67424  43.0003 121.1458 0001077 286.4092 128.0922 15.75096894  3419
STARLINK-36447          
1 67425U 26005X   26026.58334491 -.00255210  00000+0 -17012-2 0  9999
2 67425  43.0002 121.1407 0001366 292.8077 123.6079 15.75143300  3417
STARLINK-36146          
1 67426U 26005Y   26026.58334491 -.00207771  00000+0 -13779-2 0  9995
2 67426  43.0002 121.1356 0001448 267.9485 150.3784 15.75123301  3361
STARLINK-36459          
1 67427U 26005Z   26026.58334491 -.00177979  00000+0 -11765-2 0  9995
2 67427  43.0000 121.1305 0001395 270.6192 149.6271 15.75107775  3337
STARLINK-36464          
1 67428U 26005AA  26026.58334491 -.00240687  00000+0 -16012-2 0  9993
2 67428  43.0004 121.1208 0001295 296.2118 127.8527 15.75146906  3415
STARLINK-36513          
1 67429U 26005AB  26026.58334491 -.00252930  00000+0 -16838-2 0  9994
2 67429  43.0002 121.1162 0001923 289.9102 136.0525 15.75164392  3412
