CCSDS_OMM_VERS = 2.0
CREATION_DATE  = 
ORIGINATOR     = 

OBJECT_NAME    = STARLINK-36455
OBJECT_ID      = 2026-005Q
CENTER_NAME    = EARTH
REF_FRAME      = TEME
TIME_SYSTEM    = UTC
MEAN_ELEMENT_THEORY = SGP/SGP4

EPOCH          = 2026-01-26T14:00:01.000224
MEAN_MOTION    = 15.75018260
ECCENTRICITY   = .00012163
INCLINATION    = 43.0001
RA_OF_ASC_NODE = 121.1742
ARG_OF_PERICENTER = 251.0055
MEAN_ANOMALY   = 151.9624

EPHEMERIS_TYPE = 0
CLASSIFICATION_TYPE = U
NORAD_CAT_ID   = 67418
ELEMENT_SET_NO = 999
REV_AT_EPOCH   = 341
BSTAR          = -.14278765E-4
MEAN_MOTION_DOT = -.2667E-4
MEAN_MOTION_DDOT = 0

CCSDS_OMM_VERS = 2.0
CREATION_DATE  = 
ORIGINATOR     = 

OBJECT_NAME    = STARLINK-36424
OBJECT_ID      = 2026-005R
CENTER_NAME    = EARTH
REF_FRAME      = TEME
TIME_SYSTEM    = UTC
MEAN_ELEMENT_THEORY = SGP/SGP4

EPOCH          = 2026-01-26T14:00:01.000224
MEAN_MOTION    = 15.75086378
ECCENTRICITY   = .00010189
INCLINATION    = 43.0001
RA_OF_ASC_NODE = 121.1695
ARG_OF_PERICENTER = 295.5088
MEAN_ANOMALY   = 109.3779

EPHEMERIS_TYPE = 0
CLASSIFICATION_TYPE = U
NORAD_CAT_ID   = 67419
ELEMENT_SET_NO = 999
REV_AT_EPOCH   = 341
BSTAR          = -.7638946E-3
MEAN_MOTION_DOT = -.116446E-2
MEAN_MOTION_DDOT = 0

CCSDS_OMM_VERS = 2.0
CREATION_DATE  = 
ORIGINATOR     = 

OBJECT_NAME    = STARLINK-35564
OBJECT_ID      = 2026-005S
CENTER_NAME    = EARTH
REF_FRAME      = TEME
TIME_SYSTEM    = UTC
MEAN_ELEMENT_THEORY = SGP/SGP4

EPOCH          = 2026-01-26T14:00:01.000224
MEAN_MOTION    = 15.75136885
ECCENTRICITY   = .00014773
INCLINATION    = 43.0002
RA_OF_ASC_NODE = 121.1649
ARG_OF_PERICENTER = 271.9103
MEAN_ANOMALY   = 134.9160

EPHEMERIS_TYPE = 0
CLASSIFICATION_TYPE = U
NORAD_CAT_ID   = 67420
ELEMENT_SET_NO = 999
REV_AT_EPOCH   = 330
BSTAR          = -.15947362E-2
MEAN_MOTION_DOT = -.239642E-2
MEAN_MOTION_DDOT = 0

CCSDS_OMM_VERS = 2.0
CREATION_DATE  = 
ORIGINATOR     = 

OBJECT_NAME    = STARLINK-36431
OBJECT_ID      = 2026-005T
CENTER_NAME    = EARTH
REF_FRAME      = TEME
TIME_SYSTEM    = UTC
MEAN_ELEMENT_THEORY = SGP/SGP4

EPOCH          = 2026-01-26T14:00:01.000224
MEAN_MOTION    = 15.75108571
ECCENTRICITY   = .00015752
INCLINATION    = 43.0004
RA_OF_ASC_NODE = 121.1599
ARG_OF_PERICENTER = 278.3099
MEAN_ANOMALY   = 130.4417

EPHEMERIS_TYPE = 0
CLASSIFICATION_TYPE = U
NORAD_CAT_ID   = 67421
ELEMENT_SET_NO = 999
REV_AT_EPOCH   = 320
BSTAR          = -.12522091E-2
MEAN_MOTION_DOT = -.189158E-2
MEAN_MOTION_DDOT = 0

CCSDS_OMM_VERS = 2.0
CREATION_DATE  = 
ORIGINATOR     = 

OBJECT_NAME    = STARLINK-36418
OBJECT_ID      = 2026-005U
CENTER_NAME    = EARTH
REF_FRAME      = TEME
TIME_SYSTEM    = UTC
MEAN_ELEMENT_THEORY = SGP/SGP4

EPOCH          = 2026-01-26T14:00:01.000224
MEAN_MOTION    = 15.75122093
ECCENTRICITY   = .00011715
INCLINATION    = 43.0001
RA_OF_ASC_NODE = 121.1552
ARG_OF_PERICENTER = 274.7710
MEAN_ANOMALY   = 135.8926

EPHEMERIS_TYPE = 0
CLASSIFICATION_TYPE = U
NORAD_CAT_ID   = 67422
ELEMENT_SET_NO = 999
REV_AT_EPOCH   = 336
BSTAR          = -.14049262E-2
MEAN_MOTION_DOT = -.21172E-2
MEAN_MOTION_DDOT = 0

CCSDS_OMM_VERS = 2.0
CREATION_DATE  = 
ORIGINATOR     = 

OBJECT_NAME    = STARLINK-36465
OBJECT_ID      = 2026-005V
CENTER_NAME    = EARTH
REF_FRAME      = TEME
TIME_SYSTEM    = UTC
MEAN_ELEMENT_THEORY = SGP/SGP4

EPOCH          = 2026-01-26T14:00:01.000224
MEAN_MOTION    = 15.75118577
ECCENTRICITY   = .00013881
INCLINATION    = 43.0005
RA_OF_ASC_NODE = 121.1505
ARG_OF_PERICENTER = 285.6177
MEAN_ANOMALY   = 126.9632

EPHEMERIS_TYPE = 0
CLASSIFICATION_TYPE = U
NORAD_CAT_ID   = 67423
ELEMENT_SET_NO = 999
REV_AT_EPOCH   = 315
BSTAR          = -.13533042E-2
MEAN_MOTION_DOT = -.204115E-2
MEAN_MOTION_DDOT = 0

CCSDS_OMM_VERS = 2.0
CREATION_DATE  = 
ORIGINATOR     = 

OBJECT_NAME    = STARLINK-36362
OBJECT_ID      = 2026-005W
CENTER_NAME    = EARTH
REF_FRAME      = TEME
TIME_SYSTEM    = UTC
MEAN_ELEMENT_THEORY = SGP/SGP4

EPOCH          = 2026-01-26T14:00:01.000224
MEAN_MOTION    = 15.75096894
ECCENTRICITY   = .00010776
INCLINATION    = 43.0003
RA_OF_ASC_NODE = 121.1458
ARG_OF_PERICENTER = 286.4092
MEAN_ANOMALY   = 128.0922

EPHEMERIS_TYPE = 0
CLASSIFICATION_TYPE = U
NORAD_CAT_ID   = 67424
ELEMENT_SET_NO = 999
REV_AT_EPOCH   = 341
BSTAR          = -.11302149E-2
MEAN_MOTION_DOT = -.171038E-2
MEAN_MOTION_DDOT = 0

CCSDS_OMM_VERS = 2.0
CREATION_DATE  = 
ORIGINATOR     = 

OBJECT_NAME    = STARLINK-36447
OBJECT_ID      = 2026-005X
CENTER_NAME    = EARTH
REF_FRAME      = TEME
TIME_SYSTEM    = UTC
MEAN_ELEMENT_THEORY = SGP/SGP4

EPOCH          = 2026-01-26T14:00:01.000224
MEAN_MOTION    = 15.75143300
ECCENTRICITY   = .00013668
INCLINATION    = 43.0002
RA_OF_ASC_NODE = 121.1407
ARG_OF_PERICENTER = 292.8077
MEAN_ANOMALY   = 123.6079

EPHEMERIS_TYPE = 0
CLASSIFICATION_TYPE = U
NORAD_CAT_ID   = 67425
ELEMENT_SET_NO = 999
REV_AT_EPOCH   = 341
BSTAR          = -.17011969E-2
MEAN_MOTION_DOT = -.25521E-2
MEAN_MOTION_DDOT = 0

CCSDS_OMM_VERS = 2.0
CREATION_DATE  = 
ORIGINATOR     = 

OBJECT_NAME    = STARLINK-36146
OBJECT_ID      = 2026-005Y
CENTER_NAME    = EARTH
REF_FRAME      = TEME
TIME_SYSTEM    = UTC
MEAN_ELEMENT_THEORY = SGP/SGP4

EPOCH          = 2026-01-26T14:00:01.000224
MEAN_MOTION    = 15.75123301
ECCENTRICITY   = .00014483
INCLINATION    = 43.0002
RA_OF_ASC_NODE = 121.1356
ARG_OF_PERICENTER = 267.9485
MEAN_ANOMALY   = 150.3784

EPHEMERIS_TYPE = 0
CLASSIFICATION_TYPE = U
NORAD_CAT_ID   = 67426
ELEMENT_SET_NO = 999
REV_AT_EPOCH   = 336
BSTAR          = -.13778906E-2
MEAN_MOTION_DOT = -.207771E-2
MEAN_MOTION_DDOT = 0

CCSDS_OMM_VERS = 2.0
CREATION_DATE  = 
ORIGINATOR     = 

OBJECT_NAME    = STARLINK-36459
OBJECT_ID      = 2026-005Z
CENTER_NAME    = EARTH
REF_FRAME      = TEME
TIME_SYSTEM    = UTC
MEAN_ELEMENT_THEORY = SGP/SGP4

EPOCH          = 2026-01-26T14:00:01.000224
MEAN_MOTION    = 15.75107775
ECCENTRICITY   = .00013956
INCLINATION    = 43.0000
RA_OF_ASC_NODE = 121.1305
ARG_OF_PERICENTER = 270.6192
MEAN_ANOMALY   = 149.6271

EPHEMERIS_TYPE = 0
CLASSIFICATION_TYPE = U
NORAD_CAT_ID   = 67427
ELEMENT_SET_NO = 999
REV_AT_EPOCH   = 333
BSTAR          = -.117655E-2
MEAN_MOTION_DOT = -.177979E-2
MEAN_MOTION_DDOT = 0

CCSDS_OMM_VERS = 2.0
CREATION_DATE  = 
ORIGINATOR     = 

OBJECT_NAME    = STARLINK-36464
OBJECT_ID      = 2026-005AA
CENTER_NAME    = EARTH
REF_FRAME      = TEME
TIME_SYSTEM    = UTC
MEAN_ELEMENT_THEORY = SGP/SGP4

EPOCH          = 2026-01-26T14:00:01.000224
MEAN_MOTION    = 15.75146906
ECCENTRICITY   = .00012952
INCLINATION    = 43.0004
RA_OF_ASC_NODE = 121.1208
ARG_OF_PERICENTER = 296.2118
MEAN_ANOMALY   = 127.8527

EPHEMERIS_TYPE = 0
CLASSIFICATION_TYPE = U
NORAD_CAT_ID   = 67428
ELEMENT_SET_NO = 999
REV_AT_EPOCH   = 341
BSTAR          = -.16012454E-2
MEAN_MOTION_DOT = -.240687E-2
MEAN_MOTION_DDOT = 0

CCSDS_OMM_VERS = 2.0
CREATION_DATE  = 
ORIGINATOR     = 

OBJECT_NAME    = STARLINK-36513
OBJECT_ID      = 2026-005AB
CENTER_NAME    = EARTH
REF_FRAME      = TEME
TIME_SYSTEM    = UTC
MEAN_ELEMENT_THEORY = SGP/SGP4

EPOCH          = 2026-01-26T14:00:01.000224
MEAN_MOTION    = 15.75164392
ECCENTRICITY   = .00019233
INCLINATION    = 43.0002
RA_OF_ASC_NODE = 121.1162
ARG_OF_PERICENTER = 289.9102
MEAN_ANOMALY   = 136.0525

EPHEMERIS_TYPE = 0
CLASSIFICATION_TYPE = U
NORAD_CAT_ID   = 67429
ELEMENT_SET_NO = 999
REV_AT_EPOCH   = 341
BSTAR          = -.16837734E-2
MEAN_MOTION_DOT = -.25293E-2
MEAN_MOTION_DDOT = 0

